HIMAWARI-8              
1 40267U 14060A   23250.72757934 -.00000287  00000+0  00000+0 0  9992
2 40267   0.0219 248.0309 0000792 296.4956 204.5792  1.00271078 32705
